     3.04           N: GNSS NAV DATA    M: MIXED            RINEX VERSION / TYPE
ssrcrin-15.6.1x                         20250101 183000 UTC PGM / RUN BY / DATE 
    18                                                      LEAP SECONDS        
                                                            END OF HEADER       
R18 2025 01 01 18 45 00 1.797825098038E-04 1.818989403546E-12 3.258000000000E+05
     8.819255859375E+03-2.005647659302E+00-9.313225746155E-10 0.000000000000E+00
     5.861542968750E+03 2.465170860291E+00 3.725290298462E-09-3.000000000000E+00
     2.322650390625E+04 1.441497802734E-01-0.000000000000E+00 0.000000000000E+00
R16 2025 01 01 18 45 00 3.211386501789E-05 0.000000000000E+00 3.258000000000E+05
     2.448799755859E+04 9.828510284424E-01-2.793967723846E-09 0.000000000000E+00
    -1.706796875000E+02-3.369712829590E-02 0.000000000000E+00-1.000000000000E+00
     7.079786132812E+03-3.404044151306E+00-0.000000000000E+00 0.000000000000E+00
R19 2025 01 01 18 45 00-3.040404990315E-04-9.094947017729E-13 3.258000000000E+05
     1.668642333984E+04-1.729383468628E+00-1.862645149231E-09 0.000000000000E+00
    -6.973364746094E+03 1.765359878540E+00 9.313225746155E-10 3.000000000000E+00
     1.799645849609E+04 2.288077354431E+00-1.862645149231E-09 0.000000000000E+00
R09 2025 01 01 18 45 00 2.296194434166E-04 1.818989403546E-12 3.258000000000E+05
     1.209110986328E+04 2.801374435425E+00-9.313225746155E-10 0.000000000000E+00
    -9.021561523438E+03 2.465772628784E-01 9.313225746155E-10-2.000000000000E+00
     2.055844824219E+04-1.548039436340E+00-2.793967723846E-09 0.000000000000E+00
R17 2025 01 01 18 45 00 1.537017524242E-04 2.728484105319E-12 3.258000000000E+05
    -3.423432128906E+03-1.425696372986E+00-0.000000000000E+00 0.000000000000E+00
     1.772051953125E+04 2.018808364868E+00 5.587935447693E-09 4.000000000000E+00
     1.802157666016E+04-2.261097908020E+00 9.313225746155E-10 0.000000000000E+00
S23 2025 01 01 18 30 24 0.000000000000E+00 0.000000000000E+00 3.258320000000E+05
     3.866796400000E+04 0.000000000000E+00 0.000000000000E+00 6.300000000000E+01
     1.681330800000E+04 0.000000000000E+00 0.000000000000E+00 3.276700000000E+04
     0.000000000000E+00 0.000000000000E+00 0.000000000000E+00 4.000000000000E+00
S36 2025 01 01 18 29 36 0.000000000000E+00 0.000000000000E+00 3.258560000000E+05
     4.200368800000E+04 0.000000000000E+00 0.000000000000E+00 6.300000000000E+01
     3.674846960000E+03 0.000000000000E+00 0.000000000000E+00 3.276700000000E+04
     0.000000000000E+00 0.000000000000E+00 0.000000000000E+00 7.700000000000E+01
E21 2025 01 01 18 20 00-6.376188830473E-04-2.245315045002E-12 0.000000000000E+00
     3.400000000000E+01-2.215625000000E+01 3.555862401656E-09 1.020578067562E+00
    -9.778887033463E-07 2.548983320594E-04 6.385147571564E-06 5.440604059219E+03
     3.252000000000E+05-1.303851604462E-08 2.413503612524E+00 3.352761268616E-08
     9.642257448554E-01 2.053437500000E+02 1.030671519126E+00-5.529873198558E-09
    -5.178787145843E-10 5.170000000000E+02 2.347000000000E+03
     3.120000000000E+00 0.000000000000E+00 0.000000000000E+00 6.984919309616E-10
     3.258650000000E+05
E27 2025 01 01 18 20 00-5.450685857795E-04-9.890754881781E-12 0.000000000000E+00
     3.400000000000E+01-2.075000000000E+01 3.523361047844E-09 2.293218178290E+00
    -9.723007678986E-07 3.201729850844E-04 6.306916475296E-06 5.440604606628E+03
     3.252000000000E+05-8.940696716309E-08 2.413476121368E+00 1.490116119385E-08
     9.641973232830E-01 2.079062500000E+02 5.557595515361E-01-5.568089076117E-09
    -5.535944880039E-10 5.170000000000E+02 2.347000000000E+03
     3.120000000000E+00 0.000000000000E+00-2.328306436539E-10 2.328306436539E-10
     3.258650000000E+05
E23 2025 01 01 18 20 00 8.344475645572E-06-2.557953848736E-13 0.000000000000E+00
     3.400000000000E+01-1.725000000000E+01 3.544433354162E-09-3.392636420925E-01
    -6.984919309616E-07 3.608574625105E-04 6.334856152534E-06 5.440606151581E+03
     3.252000000000E+05 3.911554813385E-08 2.409483017713E+00 4.470348358154E-08
     9.661069770449E-01 2.069375000000E+02 1.612321761182E+00-5.549159716205E-09
    -5.128785063056E-10 5.170000000000E+02 2.347000000000E+03
     3.120000000000E+00 3.900000000000E+02-6.984919309616E-10 1.164153218269E-09
     3.258650000000E+05
R02 2025 01 01 18 45 00-3.878865391016E-05 9.094947017729E-13 3.258900000000E+05
    -2.465151855469E+03-8.122062683105E-01-0.000000000000E+00 1.000000000000E+00
     1.733076611328E+04-2.408992767334E+00 5.587935447693E-09-4.000000000000E+00
     1.863178320312E+04 2.131814956665E+00 9.313225746155E-10 0.000000000000E+00
S36 2025 01 01 18 32 00 0.000000000000E+00 0.000000000000E+00 3.259320000000E+05
     4.200368800000E+04 0.000000000000E+00 0.000000000000E+00 6.300000000000E+01
     3.674846960000E+03 0.000000000000E+00 0.000000000000E+00 3.276700000000E+04
     0.000000000000E+00 0.000000000000E+00 0.000000000000E+00 7.800000000000E+01
E21 2025 01 01 18 20 00-6.376199307851E-04-2.245315045002E-12 0.000000000000E+00
     3.400000000000E+01-2.215625000000E+01 3.555862401656E-09 1.020578067562E+00
    -9.778887033463E-07 2.548983320594E-04 6.385147571564E-06 5.440604059219E+03
     3.252000000000E+05-1.303851604462E-08 2.413503612524E+00 3.352761268616E-08
     9.642257448554E-01 2.053437500000E+02 1.030671519126E+00-5.529873198558E-09
    -5.178787145843E-10 2.580000000000E+02 2.347000000000E+03
     3.120000000000E+00 0.000000000000E+00 0.000000000000E+00 0.000000000000E+00
     3.259400000000E+05
E27 2025 01 01 18 20 00-5.450697499327E-04-9.904965736496E-12 0.000000000000E+00
     3.400000000000E+01-2.075000000000E+01 3.523361047844E-09 2.293218178290E+00
    -9.723007678986E-07 3.201729850844E-04 6.306916475296E-06 5.440604606628E+03
     3.252000000000E+05-8.940696716309E-08 2.413476121368E+00 1.490116119385E-08
     9.641973232830E-01 2.079062500000E+02 5.557595515361E-01-5.568089076117E-09
    -5.535944880039E-10 2.580000000000E+02 2.347000000000E+03
     3.120000000000E+00 0.000000000000E+00-2.328306436539E-10 0.000000000000E+00
     3.259400000000E+05
E23 2025 01 01 18 20 00 8.342205546796E-06-2.415845301584E-13 0.000000000000E+00
     3.400000000000E+01-1.725000000000E+01 3.544433354162E-09-3.392636420925E-01
    -6.984919309616E-07 3.608574625105E-04 6.334856152534E-06 5.440606151581E+03
     3.252000000000E+05 3.911554813385E-08 2.409483017713E+00 4.470348358154E-08
     9.661069770449E-01 2.069375000000E+02 1.612321761182E+00-5.549159716205E-09
    -5.128785063056E-10 2.580000000000E+02 2.347000000000E+03
     3.120000000000E+00 4.800000000000E+01-6.984919309616E-10 0.000000000000E+00
     3.259400000000E+05
S23 2025 01 01 18 32 32 0.000000000000E+00 0.000000000000E+00 3.259590000000E+05
     3.866796400000E+04 0.000000000000E+00 0.000000000000E+00 6.300000000000E+01
     1.681330800000E+04 0.000000000000E+00 0.000000000000E+00 3.276700000000E+04
     0.000000000000E+00 0.000000000000E+00 0.000000000000E+00 5.000000000000E+00
G10 2025 01 01 20 00 00-2.588350325823E-04-1.591615728103E-11 0.000000000000E+00
     8.100000000000E+01-8.893750000000E+01 3.920520448270E-09 2.790171281582E+00
    -4.677101969719E-06 1.011651323643E-02 1.451000571251E-06 5.153685358047E+03
     3.312000000000E+05 7.450580596924E-09-8.113249089962E-01-1.303851604462E-07
     9.872506783363E-01 3.648437500000E+02-2.334369439194E+00-7.910329496975E-09
    -1.967939115420E-10 1.000000000000E+00 2.347000000000E+03 0.000000000000E+00
     2.000000000000E+00 0.000000000000E+00 2.328306436539E-09 8.100000000000E+01
     3.259680000000E+05 4.000000000000E+00
G08 2025 01 01 20 00 00 4.518646746874E-04 8.299139153678E-12 0.000000000000E+00
     1.840000000000E+02 6.946875000000E+01 4.611620663940E-09 8.320863717373E-01
     3.879889845848E-06 1.027039741166E-02 1.078099012375E-05 5.153734056473E+03
     3.312000000000E+05 3.352761268616E-08-2.948517385264E+00 1.005828380585E-07
     9.502257782949E-01 1.633125000000E+02 3.965451372167E-01-7.978903781941E-09
    -6.125255141463E-10 1.000000000000E+00 2.347000000000E+03 0.000000000000E+00
     2.000000000000E+00 0.000000000000E+00 4.656612873077E-09 1.840000000000E+02
     3.260280000000E+05 4.000000000000E+00
S36 2025 01 01 18 34 40 0.000000000000E+00 0.000000000000E+00 3.260840000000E+05
     4.200368800000E+04 0.000000000000E+00 0.000000000000E+00 6.300000000000E+01
     3.674846960000E+03 0.000000000000E+00 0.000000000000E+00 3.276700000000E+04
     0.000000000000E+00 0.000000000000E+00 0.000000000000E+00 7.900000000000E+01
S23 2025 01 01 18 34 40 0.000000000000E+00 0.000000000000E+00 3.260870000000E+05
     3.866796400000E+04 0.000000000000E+00 0.000000000000E+00 6.300000000000E+01
     1.681330800000E+04 0.000000000000E+00 0.000000000000E+00 3.276700000000E+04
     0.000000000000E+00 0.000000000000E+00 0.000000000000E+00 6.000000000000E+00
S23 2025 01 01 18 36 48 0.000000000000E+00 0.000000000000E+00 3.262140000000E+05
     3.866796400000E+04 0.000000000000E+00 0.000000000000E+00 6.300000000000E+01
     1.681330800000E+04 0.000000000000E+00 0.000000000000E+00 3.276700000000E+04
     0.000000000000E+00 0.000000000000E+00 0.000000000000E+00 7.000000000000E+00
G07 2025 01 01 20 00 00-1.407228410244E-05 6.821210263297E-13 0.000000000000E+00
     9.200000000000E+01 9.718750000000E+00 4.819486465242E-09-1.929270432715E+00
     4.414469003677E-07 1.890050899237E-02 7.487833499908E-06 5.153755668640E+03
     3.312000000000E+05 3.147870302200E-07 1.278560692339E+00-4.842877388000E-08
     9.500063405830E-01 2.211562500000E+02-2.086110675820E+00-7.747822727916E-09
     8.278916278665E-10 1.000000000000E+00 2.347000000000E+03 0.000000000000E+00
     2.800000000000E+00 0.000000000000E+00-1.071020960808E-08 9.200000000000E+01
     3.262320000000E+05 4.000000000000E+00
